SAUDISAT 2              
1 28371U 04025F   26130.52437181  .00000190  00000+0  53417-4 0  9998
2 28371  98.5511 129.5345 0025731  54.2145 306.1439 14.56660454160262
COSMOS 2407             
1 28380U 04028A   26130.49329810  .00000067  00000+0  52418-4 0  9999
2 28380  82.9578 102.7509 0039288   0.0299 121.0829 13.76331424 94691
COSMOS 2414             
1 28521U 05002A   26130.32858950  .00000077  00000+0  50998-4 0  9995
2 28521  82.9495  72.2801 0041598  77.6889 282.8927 13.87922525 78567
INMARSAT 4-F1           
1 28628U 05009A   26130.37127880  .00000044  00000+0  00000+0 0  9994
2 28628   5.1178  42.6796 0002925   9.9600 127.3351  1.00272765 77293
SJ-7                    
1 28737U 05024A   26130.53139007  .00004758  00000+0  21736-3 0  9993
2 28737  97.7319 159.6352 0016725 157.8423 202.3538 15.20967536142304
CUBESAT XI-V            
1 28895U 05043F   26130.41921488  .00000913  00000+0  15191-3 0  9995
2 28895  98.2944 285.2597 0013294 329.8467  30.1973 14.72531014 96192
HINODE (SOLAR-B)        
1 29479U 06041A   26130.50774661  .00000472  00000+0  89552-4 0  9995
2 29479  98.0566 147.2146 0018577  51.0818 309.2040 14.68567871 49344
SHIJIAN-6 02B (SJ-6 02B)
1 29506U 06046B   26130.55601855  .00001640  00000+0  13220-3 0  9996
2 29506  97.7155 159.8488 0011360 183.6758 176.4384 15.01268863 65093
DMSP 5D-3 F17 (USA 191) 
1 29522U 06050A   26130.48044766  .00000063  00000+0  54697-4 0  9995
2 29522  98.7389 137.8213 0010477 157.3006 202.8633 14.14986439  7091
LAPAN-TUBSAT            
1 29709U 07001A   26130.54455535  .00000717  00000+0  88841-4 0  9990
2 29709  98.1348 128.9224 0011169 313.6382  46.3905 14.85912721 45561
HAIYANG-1B              
1 31113U 07010A   26130.52764750  .00000062  00000+0  39277-4 0  9994
2 31113  98.3481 113.8370 0012626 317.4330  42.5874 14.31017516995243
COSMO-SKYMED 2          
1 32376U 07059A   26130.49017664  .00000273  00000+0  40793-4 0  9999
2 32376  97.8886 314.6351 0001452  89.8013 270.3366 14.82154387996412
CARTOSAT-2A             
1 32783U 08021A   26130.50351412  .00001014  00000+0  14332-3 0  9998
2 32783  97.7662 180.4939 0010514 229.8295 130.1997 14.79188225973235
CUTE-1.7+APD II (CO-65) 
1 32785U 08021C   26130.45818640  .00002573  00000+0  16642-3 0  9992
2 32785  97.8263 111.1086 0009918 147.2361 212.9484 15.09092520979504
SEEDS II (CO-66)        
1 32791U 08021J   26130.51498933  .00011518  00000+0  38149-3 0  9990
2 32791  97.7530 126.6561 0005077  89.2514 270.9308 15.31463799981522
YUBILEINY (RS30)        
1 32953U 08025A   26130.51520573  .00000058  00000+0  34674-3 0  9996
2 32953  82.5069  18.8731 0020401  35.5611 324.6824 12.43178227815011
FENGYUN 3A              
1 32958U 08026A   26130.40897791  .00000042  00000+0  40433-4 0  9993
2 32958  98.6868  71.9530 0007735 232.8521 127.1949 14.19563081930041
HUANJING 1A (HJ-1A)     
1 33320U 08041A   26130.54055384  .00001184  00000+0  14849-3 0  9992
2 33320  97.6679 117.8412 0017303 262.2804  97.6446 14.83904980952827
HUANJING 1B (HJ-1B)     
1 33321U 08041B   26130.49292304  .00000566  00000+0  74844-4 0  9997
2 33321  97.6518 121.0797 0035232 309.2081  50.6006 14.83252567952821
SHIJIAN-6 03A (SJ-6 03A)
1 33408U 08053A   26130.51599494  .00005035  00000+0  25955-3 0  9993
2 33408  97.8441 162.5341 0012554 136.2965 223.9263 15.16788537957250
SHIJIAN-6 03B (SJ-6 03B)
1 33409U 08053B   26130.51612940  .00001396  00000+0  10477-3 0  9995
2 33409  97.8610 149.7837 0019726 163.3133 196.8746 15.04206816957089
CHUANGXIN 1-02 (CX-1-02)
1 33434U 08056B   26130.51762433  .00000193  00000+0  91693-4 0  9993
2 33434  98.6164 157.1560 0013045 249.7672 110.2108 14.30145935913234
