OBJECT_NAME,OBJECT_ID,EPOCH,MEAN_MOTION,ECCENTRICITY,INCLINATION,RA_OF_ASC_NODE,ARG_OF_PERICENTER,MEAN_ANOMALY,EPHEMERIS_TYPE,CLASSIFICATION_TYPE,NORAD_CAT_ID,ELEMENT_SET_NO,REV_AT_EPOCH,BSTAR,MEAN_MOTION_DOT,MEAN_MOTION_DDOT
SAUDISAT 2,2004-025F,2026-05-10T12:35:05.724384,14.56660454,.0025731,98.5511,129.5345,54.2145,306.1439,0,U,28371,999,16026,.53417E-4,.19E-5,0
COSMOS 2407,2004-028A,2026-05-10T11:50:20.955840,13.76331424,.0039288,82.9578,102.7509,0.0299,121.0829,0,U,28380,999,9469,.52418E-4,.67E-6,0
COSMOS 2414,2005-002A,2026-05-10T07:53:10.132800,13.87922525,.0041598,82.9495,72.2801,77.6889,282.8927,0,U,28521,999,7856,.50998E-4,.77E-6,0
INMARSAT 4-F1,2005-009A,2026-05-10T08:54:38.488320,1.00272765,.0002925,5.1178,42.6796,9.9600,127.3351,0,U,28628,999,7729,0,.44E-6,0
SJ-7,2005-024A,2026-05-10T12:45:12.102048,15.20967536,.0016725,97.7319,159.6352,157.8423,202.3538,0,U,28737,999,14230,.21736E-3,.4758E-4,0
CUBESAT XI-V,2005-043F,2026-05-10T10:03:40.165632,14.72531014,.0013294,98.2944,285.2597,329.8467,30.1973,0,U,28895,999,9619,.15191E-3,.913E-5,0
HINODE (SOLAR-B),2006-041A,2026-05-10T12:11:09.307104,14.68567871,.0018577,98.0566,147.2146,51.0818,309.2040,0,U,29479,999,4934,.89552E-4,.472E-5,0
SHIJIAN-6 02B (SJ-6 02B),2006-046B,2026-05-10T13:20:40.002720,15.01268863,.001136,97.7155,159.8488,183.6758,176.4384,0,U,29506,999,6509,.1322E-3,.164E-4,0
DMSP 5D-3 F17 (USA 191),2006-050A,2026-05-10T11:31:50.677824,14.14986439,.0010477,98.7389,137.8213,157.3006,202.8633,0,U,29522,999,709,.54697E-4,.63E-6,0
LAPAN-TUBSAT,2007-001A,2026-05-10T13:04:09.582240,14.85912721,.0011169,98.1348,128.9224,313.6382,46.3905,0,U,29709,999,4556,.88841E-4,.717E-5,0
HAIYANG-1B,2007-010A,2026-05-10T12:39:48.744000,14.31017516,.0012626,98.3481,113.8370,317.4330,42.5874,0,U,31113,999,99524,.39277E-4,.62E-6,0
COSMO-SKYMED 2,2007-059A,2026-05-10T11:45:51.261696,14.82154387,.0001452,97.8886,314.6351,89.8013,270.3366,0,U,32376,999,99641,.40793E-4,.273E-5,0
CARTOSAT-2A,2008-021A,2026-05-10T12:05:03.619968,14.79188225,.0010514,97.7662,180.4939,229.8295,130.1997,0,U,32783,999,97323,.14332E-3,.1014E-4,0
CUTE-1.7+APD II (CO-65),2008-021C,2026-05-10T10:59:47.304960,15.09092520,.0009918,97.8263,111.1086,147.2361,212.9484,0,U,32785,999,97950,.16642E-3,.2573E-4,0
SEEDS II (CO-66),2008-021J,2026-05-10T12:21:35.078112,15.31463799,.0005077,97.7530,126.6561,89.2514,270.9308,0,U,32791,999,98152,.38149E-3,.11518E-3,0
YUBILEINY (RS30),2008-025A,2026-05-10T12:21:53.775072,12.43178227,.0020401,82.5069,18.8731,35.5611,324.6824,0,U,32953,999,81501,.34674E-3,.58E-6,0
FENGYUN 3A,2008-026A,2026-05-10T09:48:55.691424,14.19563081,.0007735,98.6868,71.9530,232.8521,127.1949,0,U,32958,999,93004,.40433E-4,.42E-6,0
HUANJING 1A (HJ-1A),2008-041A,2026-05-10T12:58:23.851776,14.83904980,.0017303,97.6679,117.8412,262.2804,97.6446,0,U,33320,999,95282,.14849E-3,.1184E-4,0
HUANJING 1B (HJ-1B),2008-041B,2026-05-10T11:49:48.550656,14.83252567,.0035232,97.6518,121.0797,309.2081,50.6006,0,U,33321,999,95282,.74844E-4,.566E-5,0
SHIJIAN-6 03A (SJ-6 03A),2008-053A,2026-05-10T12:23:01.962816,15.16788537,.0012554,97.8441,162.5341,136.2965,223.9263,0,U,33408,999,95725,.25955E-3,.5035E-4,0
SHIJIAN-6 03B (SJ-6 03B),2008-053B,2026-05-10T12:23:13.580160,15.04206816,.0019726,97.8610,149.7837,163.3133,196.8746,0,U,33409,999,95708,.10477E-3,.1396E-4,0
CHUANGXIN 1-02 (CX-1-02),2008-056B,2026-05-10T12:25:22.742112,14.30145935,.0013045,98.6164,157.1560,249.7672,110.2108,0,U,33434,999,91323,.91693E-4,.193E-5,0
